GALAXY 25 (G-25)        
1 24812U 97026A   22205.17966115 -.00000006  00000+0  00000+0 0  9993
2 24812   3.7796  83.3160 0005538  12.2405 337.0992  1.00273079 92099
INTELSAT 5 (IS-5)       
1 24916U 97046A   22205.56971840 -.00000066  00000+0  00000+0 0  9990
2 24916   7.3043  60.8115 0003044  87.9261 164.7629  1.00272196 91346
GALAXY 11 (G-11)        
1 26038U 99071A   22205.51027333 -.00000163  00000+0  00000+0 0  9999
2 26038   3.0909  87.2974 0000841 171.2750 134.2297  1.00272181 82803
INTELSAT 9 (IS-9)       
1 26451U 00043A   22205.44708844 -.00000291  00000+0  00000+0 0  9996
2 26451   7.2901  60.9930 0002333  71.4719 280.6158  1.00270689 29864
INTELSAT 1R (IS-1R)     
1 26608U 00072A   22204.91438052 -.00000141  00000+0  00000+0 0  9998
2 26608   4.5623  80.2491 0000432 294.6025  53.0376  1.00271510 27038
INTELSAT 10 (IS-10)     
1 26766U 01019A   22205.58350281  .00000031  00000+0  00000+0 0  9993
2 26766   5.6639  73.0728 0002850  28.0293 229.0148  1.00272035 31341
INTELSAT 901 (IS-901)   
1 26824U 01024A   22205.09283941 -.00000200  00000+0  00000+0 0  9997
2 26824   0.0508 253.9345 0001026 263.7424 150.0318  1.00272055  8698
INTELSAT 902 (IS-902)   
1 26900U 01039A   22205.51881897 -.00000282  00000+0  00000+0 0  9999
2 26900   2.4961  88.6381 0003027  41.7406 308.5098  1.00270580 76413
INTELSAT 904 (IS-904)   
1 27380U 02007A   22205.45118684 -.00000215  00000+0  00000+0 0  9994
2 27380   3.3283  85.5860 0002854  50.4251 299.0473  1.00268610 37489
DIRECTV 5 (TEMPO 1)     
1 27426U 02023A   22205.60118074 -.00000054  00000+0  00000+0 0  9994
2 27426   1.2208  92.8357 0003060  32.4256 283.3235  1.00271832 73843
INTELSAT 905 (IS-905)   
1 27438U 02027A   22205.45223326 -.00000185  00000+0  00000+0 0  9996
2 27438   3.1500  86.3235 0002453  35.1105 319.0222  1.00272251 37088
GALAXY 3C (G-3C)        
1 27445U 02030A   22205.51507655 -.00000150  00000+0  00000+0 0  9997
2 27445   0.0682  68.8576 0000599 293.5186  30.4335  1.00272981 32213
INTELSAT 906 (IS-906)   
1 27513U 02041A   22205.46984772  .00000014  00000+0  00000+0 0  9996
2 27513   2.1645  90.1208 0003181  36.4394  48.8859  1.00271131 72759
GALAXY 12 (G-12)        
1 27715U 03013B   22205.57997708  .00000057  00000+0  00000+0 0  9992
2 27715   3.3615  85.2100 0001661  49.1562 247.6861  1.00272510 37810
GALAXY 23 (G-23)        
1 27854U 03034A   22205.58953616  .00000015  00000+0  00000+0 0  9994
2 27854   0.0658 259.4904 0002949 240.3302 253.7053  1.00273425 74277
GALAXY 13 (HORIZONS-1)  
1 27954U 03044A   22205.58132630  .00000052  00000+0  00000+0 0  9992
2 27954   0.0074  28.9791 0002604 149.4762 206.0814  1.00263371 32291
INTELSAT 10-02          
1 28358U 04022A   22204.84702269 -.00000009  00000+0  00000+0 0  9990
2 28358   0.0363 254.7920 0000680 245.7381 104.9494  1.00272017 66264
XM-3 (RHYTHM)           
1 28626U 05008A   22205.51184295 -.00000202  00000+0  00000+0 0  9996
2 28626   0.0429 215.0363 0001540 324.3889 221.9304  1.00270497 28346
DIRECTV 8               
1 28659U 05019A   22205.59130427  .00000004  00000+0  00000+0 0  9999
2 28659   0.0182  69.4929 0002952  66.4584 260.1472  1.00271897 62794
GALAXY 28 (G-28)        
1 28702U 05022A   22205.51105814 -.00000182  00000+0  00000+0 0  9994
2 28702   0.0025  67.9931 0002060  66.9193 262.2747  1.00270611 37700
GALAXY 14 (G-14)        
1 28790U 05030A   22205.53538705  .00000156  00000+0  00000+0 0  9991
2 28790   1.3545  91.9105 0001694  30.2942  45.6269  1.00271786 62036
GALAXY 15 (G-15)        
1 28884U 05041A   22205.57468626  .00000082  00000+0  00000+0 0  9993
2 28884   0.0464 282.1911 0001529 205.5750 248.3806  1.00270558 61333
SPACEWAY 2              
1 28903U 05046B   22205.56657628  .00000104  00000+0  00000+0 0  9996
2 28903   1.9880  87.6085 0000522 323.8620 315.8383  1.00271892 37064
GALAXY 16 (G-16)        
1 29236U 06023A   22205.53878182 -.00000124  00000+0  00000+0 0  9992
2 29236   0.0526 255.3028 0002712 242.8334 259.0367  1.00272307 58692
DIRECTV 9S              
1 29494U 06043A   22205.53700755 -.00000110  00000+0  00000+0 0  9995
2 29494   0.0210  71.4299 0002853  60.5510 262.3838  1.00269381 37103
XM-4 (BLUES)            
1 29520U 06049A   22205.29665265 -.00000203  00000+0  00000+0 0  9993
2 29520   0.0619 271.6889 0001702  42.7494   9.2130  1.00271613 37193
GALAXY 17 (G-17)        
1 31307U 07016B   22205.49285462 -.00000172  00000+0  00000+0 0  9998
2 31307   0.0121  55.9039 0002903  84.9906 247.7101  1.00272555 55527
DIRECTV 10              
1 31862U 07032A   22205.29307743 -.00000100  00000+0  00000+0 0  9998
2 31862   0.0104 203.9446 0000590  10.2238  90.5411  1.00271563 31318
SPACEWAY 3              
1 32018U 07036A   22205.51507655 -.00000149  00000+0  00000+0 0  9998
2 32018   0.3160  89.4201 0000400 148.3604 154.8913  1.00272195 32272
INTELSAT 11 (IS-11)     
1 32253U 07044B   22205.44848365 -.00000266  00000+0  00000+0 0  9996
2 32253   0.0154  62.4912 0001662  94.6764 263.4309  1.00272474 54218
HORIZONS-2              
1 32388U 07063B   22205.53852626  .00000138  00000+0  00000+0 0  9998
2 32388   0.0127 345.6894 0004787 101.9206  97.0500  0.99704124 53544
DIRECTV 11              
1 32729U 08013A   22205.29377503 -.00000123  00000+0  00000+0 0  9997
2 32729   0.0082 286.6627 0000419 281.6112 100.2715  1.00270003 31314
GALAXY 18 (G-18)        
1 32951U 08024A   22205.58620962  .00000028  00000+0  00000+0 0  9991
2 32951   0.0177 310.6439 0003255 182.8896 256.7587  1.00273138 31571
INTELSAT 25 (IS-25)     
1 33153U 08034A   22205.45075084 -.00000222  00000+0  00000+0 0  9999
2 33153   0.0228  84.3380 0002936  68.6188 279.9529  1.00269230 51419
GALAXY 19 (G-19)        
1 33376U 08045A   22205.54212258 -.00000136  00000+0  00000+0 0  9998
2 33376   0.0473 263.2095 0002811 223.5148 273.6570  1.00272699 50621
FM-5                    
1 35493U 09034A   22205.29639105 -.00000198  00000+0  00000+0 0  9993
2 35493   0.0170  23.0441 0000649 352.7142 306.7971  1.00272987 32364
INTELSAT 14 (IS-14)     
1 36097U 09064A   22205.44813483 -.00000271  00000+0  00000+0 0  9999
2 36097   0.0246  61.1953 0002388  77.2526 280.0306  1.00270027 46327
INTELSAT 15 (IS-15)     
1 36106U 09067A   22205.57966361 -.00000183  00000+0  00000+0 0  9993
2 36106   0.0173  64.2112 0002215  73.6042  98.2817  1.00272355 26959
DIRECTV 12              
1 36131U 09075A   22205.29307743 -.00000100  00000+0  00000+0 0  9991
2 36131   0.0468 233.4722 0000427 332.4895  98.8043  1.00269056 32280
INTELSAT 16 (IS-16)     
1 36397U 10006A   22205.51358694 -.00000242  00000+0  00000+0 0  9994
2 36397   0.0154  67.5515 0001834  61.4010 281.9386  1.00271732 45376
XM-5                    
1 37185U 10053A   22205.29063583 -.00000021  00000+0  00000+0 0  9992
2 37185   0.0174  63.8155 0000825 282.3895 305.2135  1.00272585 43206
INTELSAT 17 (IS-17)     
1 37238U 10065B   22205.47019653  .00000001  00000+0  00000+0 0  9990
2 37238   0.0374 225.2401 0002713 272.9822  39.1984  1.00272638 38969
INTELSAT NEW DAWN       
1 37392U 11016A   22205.53538705  .00000158  00000+0  00000+0 0  9992
2 37392   0.0060 155.5903 0000700 332.1844  39.9822  1.00274910 39012
INTELSAT 18 (IS-18)     
1 37834U 11056A   22205.59865287  .00000055  00000+0  00000+0 0  9997
2 37834   0.0211  37.4664 0001805  97.4265 202.9091  1.00273233 39532
INTELSAT 22 (IS-22)     
1 38098U 12011A   22205.47141733 -.00000057  00000+0  00000+0 0  9995
2 38098   0.0237  79.1562 0002774  51.5799  53.2449  1.00272520 37543
INTELSAT 19 (IS-19)     
1 38356U 12030A   22205.56898917 -.00000054  00000+0  00000+0 0  9993
2 38356   0.0281  66.9569 0002859  66.2732 179.8710  1.00270609 36163
INTELSAT 20 (IS-20)     
1 38740U 12043A   22205.17966115 -.00000022  00000+0  00000+0 0  9992
2 38740   0.0139  86.3551 0000854 104.1425 244.5530  1.00270207 36460
INTELSAT 21 (IS-21)     
1 38749U 12045A   22205.44551882 -.00000282  00000+0  00000+0 0  9992
2 38749   0.0018 124.5748 0001926   4.3418 275.6054  1.00272082 36258
INTELSAT 23 (IS-23)     
1 38867U 12057A   22205.51829578 -.00000282  00000+0  00000+0 0  9994
2 38867   0.0150 105.4637 0001225  59.1537 271.1546  1.00271699 35667
FM-6                    
1 39360U 13058A   22205.29046142 -.00000014  00000+0  00000+0 0  9991
2 39360   0.0417 271.4727 0000685 101.9567 276.9634  1.00271986 31783
INTELSAT 30 (IS-30)     
1 40271U 14062A   22205.29464705 -.00000148  00000+0  00000+0 0  9997
2 40271   0.0140  26.9664 0001591  47.2330 238.7957  1.00271232 28301
DIRECTV 14              
1 40333U 14078B   22205.29377503 -.00000123  00000+0  00000+0 0  9995
2 40333   0.0160  83.8921 0000260 123.5541 101.0670  1.00273248 27788
DIRECTV 15              
1 40663U 15026A   22205.29307743 -.00000100  00000+0  00000+0 0  9999
2 40663   0.0177  86.2448 0000334 230.2122 348.1691  1.00268977 26189
SKY MEXICO-1            
1 40664U 15026B   22205.51315095 -.00000232  00000+0  00000+0 0  9990
2 40664   0.0114  44.6604 0001949  86.1373 277.3697  1.00272045 26261
INTELSAT 34 (IS-34)     
1 40874U 15039A   22205.44604203 -.00000283  00000+0  00000+0 0  9997
2 40874   0.0160 337.1016 0000746  31.7336  38.3859  1.00273365 25340
INTELSAT 31 (IS-31)     
1 41581U 16035A   22204.86406591 -.00000148  00000+0  00000+0 0  9995
2 41581   0.0058  80.4035 0001437 162.1659 274.9968  1.00272231 22411
INTELSAT 36 (IS-36)     
1 41747U 16053A   22205.17966115 -.00000022  00000+0  00000+0 0  9998
2 41747   0.0094   9.8329 0003074 347.8140  77.3995  1.00271333 21665
INTELSAT 33E (IS-33E)   
1 41748U 16053B   22205.46906292  .00000051  00000+0  00000+0 0  9992
2 41748   0.0098  27.7314 0001359 126.5212  16.7576  1.00273815 21972
INTELSAT 32E (IS-32E)   
1 41945U 17007B   22205.52021418 -.00000266  00000+0  00000+0 0  9995
2 41945   0.0188  57.0811 0000694 305.6115  83.6187  1.00271861 19968
INTELSAT 35E (IS-35E)   
1 42818U 17041A   22205.30668071 -.00000236  00000+0  00000+0 0  9998
2 42818   0.0108 329.7077 0001267 158.5682 249.6188  1.00270592 18531
INTELSAT 37E (IS-37E)   
1 42950U 17059A   22205.30999432 -.00000138  00000+0  00000+0 0  9993
2 42950   0.0148  94.8672 0002527  43.8872 256.8331  1.00271427 17784
AZERSPACE 2 (IS-38)     
1 43632U 18074A   22205.46609812  .00000139  00000+0  00000+0 0  9996
2 43632   0.0282  66.7033 0001098  56.7087  31.6632  1.00270647 14180
HORIZONS-3E             
1 43633U 18074B   22205.50150924 -.00000028  00000+0  00000+0 0  9995
2 43633   0.0090 277.9100 0001768  29.2733 344.5355  1.00272762 14061
AT&T T-16               
1 44333U 19034A   22205.29351344 -.00000113  00000+0  00000+0 0  9990
2 44333   0.0244 296.0387 0000535  72.7755 297.9791  1.00270960 11359
INTELSAT 39 (IS-39)     
1 44476U 19049B   22205.46941174  .00000036  00000+0  00000+0 0  9992
2 44476   0.0139  21.0515 0000990 313.1205 198.8987  1.00271191 10875
GALAXY 30 (G-30)        
1 46114U 20056C   22205.58465115  .00000039  00000+0  00000+0 0  9995
2 46114   0.0182  61.5100 0001692  63.5927 262.6537  1.00274153  7014
